{
    "type": "FeatureCollection",
    "features": [
        {
            "type": "Feature",
            "properties": {
                "Place": "Market",
                "marker-color": "#be0aff",
                "marker-size": "medium",
                "marker-symbol": "circle"
            },
            "geometry": {
                "coordinates": [
                    100.09637795803252,
                    20.329056675511765
                ],
                "type": "Point"
            }
        },
        {
            "type": "Feature",
            "properties": {
                "Place": "Kings Roman Casino"
            },
            "geometry": {
                "coordinates": [
                    100.0970946393266,
                    20.34052966054469
                ],
                "type": "Point"
            }
        },
        {
            "type": "Feature",
            "properties": {
                "Place": "Security Bureau",
                "marker-color": "#fd0839",
                "marker-size": "medium",
                "marker-symbol": "circle"
            },
            "geometry": {
                "coordinates": [
                    100.09806246051494,
                    20.348898240387868
                ],
                "type": "Point"
            }
        },
        {
            "type": "Feature",
            "properties": {
                "Place": "Night Market",
                "marker-color": "#be0bff",
                "marker-size": "medium",
                "marker-symbol": "circle"
            },
            "geometry": {
                "coordinates": [
                    100.10110488073616,
                    20.339089584100066
                ],
                "type": "Point"
            }
        },
        {
            "type": "Feature",
            "properties": {
                "Place": "Golf Resort"
            },
            "geometry": {
                "coordinates": [
                    100.13325568218352,
                    20.30696541225832
                ],
                "type": "Point"
            }
        },
        {
            "type": "Feature",
            "properties": {},
            "geometry": {
                "coordinates": [
                    [
                        100.12932359515958,
                        20.338652447522463
                    ],
                    [
                        100.12952681871508,
                        20.338673559435335
                    ],
                    [
                        100.12968781000103,
                        20.338848439906897
                    ],
                    [
                        100.12981746230548,
                        20.338992468827897
                    ],
                    [
                        100.12990390568024,
                        20.339029949501622
                    ],
                    [
                        100.12997077408221,
                        20.3392885251194
                    ],
                    [
                        100.12992477196127,
                        20.33965958163489
                    ],
                    [
                        100.12998031548375,
                        20.33976978983354
                    ],
                    [
                        100.13388432651982,
                        20.33956677778461
                    ]
                ],
                "type": "LineString"
            }
        },
        {
            "type": "Feature",
            "properties": {
                "stroke": "#ffd707",
                "stroke-width": 2,
                "stroke-opacity": 1,
                "fill": "#ffd609",
                "fill-opacity": 0.5
            },
            "geometry": {
                "coordinates": [
                    [
                        [
                            100.11743475648342,
                            20.363742181326685
                        ],
                        [
                            100.0847500912738,
                            20.35981863241804
                        ],
                        [
                            100.10023099139897,
                            20.3074796674631
                        ],
                        [
                            100.16201012806067,
                            20.29274271797408
                        ],
                        [
                            100.17533125564478,
                            20.334425934621976
                        ],
                        [
                            100.11743475648342,
                            20.363742181326685
                        ]
                    ]
                ],
                "type": "Polygon"
            },
            "id": 6
        },
        {
            "type": "Feature",
            "properties": {
                "marker-color": "#3c5de2",
                "marker-size": "medium",
                "marker-symbol": "circle",
                "Place": "international Airport"
            },
            "geometry": {
                "coordinates": [
                    100.16431195390652,
                    20.3237004937735
                ],
                "type": "Point"
            }
        },
        {
            "type": "Feature",
            "properties": {},
            "geometry": {
                "coordinates": [
                    [
                        100.09648179651788,
                        20.34001142178778
                    ],
                    [
                        100.09621610217596,
                        20.339891017847492
                    ],
                    [
                        100.10141042724416,
                        20.332169746811175
                    ],
                    [
                        100.10296644210763,
                        20.329984769848437
                    ],
                    [
                        100.10400665113559,
                        20.328402264503353
                    ],
                    [
                        100.10497961822676,
                        20.32383324512847
                    ],
                    [
                        100.10534620658257,
                        20.322847276153084
                    ]
                ],
                "type": "LineString"
            }
        },
        {
            "type": "Feature",
            "properties": {},
            "geometry": {
                "coordinates": [
                    [
                        100.10532692595143,
                        20.322879135352295
                    ],
                    [
                        100.10644550013734,
                        20.32320140393732
                    ],
                    [
                        100.10751974253009,
                        20.32358583859977
                    ],
                    [
                        100.10780542505478,
                        20.323656969311003
                    ],
                    [
                        100.10901172281098,
                        20.323400624317628
                    ],
                    [
                        100.10932835786451,
                        20.323336054568458
                    ],
                    [
                        100.10928365181303,
                        20.324525567347038
                    ],
                    [
                        100.10972040880341,
                        20.325399330726256
                    ],
                    [
                        100.11029065151024,
                        20.326009366746092
                    ],
                    [
                        100.11171104447413,
                        20.32752625512397
                    ],
                    [
                        100.11235598015116,
                        20.32813513994033
                    ],
                    [
                        100.11346263797202,
                        20.32985015631384
                    ],
                    [
                        100.11431706026627,
                        20.331483377609317
                    ],
                    [
                        100.11505034727696,
                        20.332525869087434
                    ],
                    [
                        100.11594996607448,
                        20.333345270232726
                    ],
                    [
                        100.11717759312927,
                        20.333663655117093
                    ],
                    [
                        100.11827541433007,
                        20.334267365615602
                    ],
                    [
                        100.1187634548761,
                        20.335509398512556
                    ]
                ],
                "type": "LineString"
            }
        },
        {
            "type": "Feature",
            "properties": {},
            "geometry": {
                "coordinates": [
                    [
                        100.11878439564236,
                        20.335484348579797
                    ],
                    [
                        100.11894044491953,
                        20.336263881913823
                    ],
                    [
                        100.11909303556342,
                        20.336893416533428
                    ],
                    [
                        100.11909824037474,
                        20.337255231996934
                    ],
                    [
                        100.11960682628933,
                        20.337400870767
                    ],
                    [
                        100.11995544590684,
                        20.337549752424223
                    ],
                    [
                        100.12015615382211,
                        20.33781638750304
                    ],
                    [
                        100.12050241993626,
                        20.338233480430617
                    ],
                    [
                        100.12082581116556,
                        20.338376987898314
                    ],
                    [
                        100.12131947713465,
                        20.338419943368933
                    ],
                    [
                        100.12186587193781,
                        20.338299996618304
                    ],
                    [
                        100.12228381902321,
                        20.338053187029928
                    ],
                    [
                        100.12245692536186,
                        20.337667161454675
                    ],
                    [
                        100.12268681244979,
                        20.337430048306487
                    ],
                    [
                        100.12331860750896,
                        20.337067088989343
                    ],
                    [
                        100.12391032169012,
                        20.33714336642265
                    ],
                    [
                        100.12455364552062,
                        20.337280388841634
                    ],
                    [
                        100.12523998301174,
                        20.337513639620326
                    ],
                    [
                        100.12594410577856,
                        20.337837744917564
                    ],
                    [
                        100.12640569355534,
                        20.338122630071197
                    ],
                    [
                        100.12867002547068,
                        20.339289000590057
                    ],
                    [
                        100.12920607807104,
                        20.338992719669307
                    ]
                ],
                "type": "LineString"
            }
        },
        {
            "type": "Feature",
            "properties": {},
            "geometry": {
                "coordinates": [
                    [
                        100.12920786403669,
                        20.33898785657746
                    ],
                    [
                        100.12932317571432,
                        20.338651162996328
                    ]
                ],
                "type": "LineString"
            }
        },
        {
            "type": "Feature",
            "properties": {},
            "geometry": {
                "coordinates": [
                    [
                        100.13392519483227,
                        20.33958191361502
                    ],
                    [
                        100.13483383729073,
                        20.339551547941127
                    ],
                    [
                        100.13535940060927,
                        20.339460594489296
                    ],
                    [
                        100.13585464908084,
                        20.339239022260912
                    ],
                    [
                        100.13640775263883,
                        20.338908680899223
                    ],
                    [
                        100.13658788200212,
                        20.338789152431175
                    ],
                    [
                        100.13695623286691,
                        20.33846207318811
                    ],
                    [
                        100.13692515783828,
                        20.33821585949653
                    ],
                    [
                        100.13673498250591,
                        20.33770802832167
                    ],
                    [
                        100.13690990220874,
                        20.337081268658196
                    ],
                    [
                        100.13719119850015,
                        20.33667146171871
                    ],
                    [
                        100.13721723116282,
                        20.336274829934723
                    ],
                    [
                        100.13706869332117,
                        20.335863121031096
                    ],
                    [
                        100.13688363672912,
                        20.33559387298523
                    ],
                    [
                        100.1368921851016,
                        20.335353885525876
                    ],
                    [
                        100.13691933520568,
                        20.335005504585936
                    ],
                    [
                        100.1368315727571,
                        20.334614640032854
                    ],
                    [
                        100.13689686097672,
                        20.334299092958418
                    ],
                    [
                        100.13830527301047,
                        20.333498214928795
                    ],
                    [
                        100.13881632173445,
                        20.332402691274694
                    ],
                    [
                        100.13960543304955,
                        20.33214609775311
                    ],
                    [
                        100.14026169979724,
                        20.329997419527047
                    ]
                ],
                "type": "LineString"
            }
        },
        {
            "type": "Feature",
            "properties": {},
            "geometry": {
                "coordinates": [
                    [
                        100.15998794140609,
                        20.323246490822456
                    ],
                    [
                        100.15994939923326,
                        20.32250855408033
                    ],
                    [
                        100.16011732318708,
                        20.32192209100495
                    ],
                    [
                        100.16027348689397,
                        20.321626174295233
                    ],
                    [
                        100.16050555245295,
                        20.32136618231526
                    ],
                    [
                        100.16051499494324,
                        20.321167645891975
                    ],
                    [
                        100.16020093263654,
                        20.319912459969544
                    ],
                    [
                        100.15931072955834,
                        20.32007090607884
                    ],
                    [
                        100.15660000101735,
                        20.321375172117058
                    ],
                    [
                        100.15560951884413,
                        20.32166140607835
                    ]
                ],
                "type": "LineString"
            }
        },
        {
            "type": "Feature",
            "properties": {},
            "geometry": {
                "coordinates": [
                    [
                        100.15566709397297,
                        20.3216674284551
                    ],
                    [
                        100.15436883928379,
                        20.322103847306323
                    ],
                    [
                        100.15318206659595,
                        20.32270631238147
                    ],
                    [
                        100.15207968101254,
                        20.32276121968529
                    ],
                    [
                        100.15080354151553,
                        20.32273376315665
                    ],
                    [
                        100.15009579867024,
                        20.323670524707225
                    ],
                    [
                        100.1499384085717,
                        20.324586162786204
                    ],
                    [
                        100.14904149434665,
                        20.324058199938335
                    ],
                    [
                        100.14760209953914,
                        20.324558322491896
                    ],
                    [
                        100.1464038233832,
                        20.324586162786204
                    ],
                    [
                        100.14600339519154,
                        20.324280242341302
                    ],
                    [
                        100.14543236893735,
                        20.323864219530563
                    ],
                    [
                        100.14426615434769,
                        20.323891913517954
                    ],
                    [
                        100.14388939814478,
                        20.3238365313714
                    ],
                    [
                        100.14329675489034,
                        20.32333913904837
                    ],
                    [
                        100.14275115925545,
                        20.323891913517954
                    ],
                    [
                        100.14277025651944,
                        20.324141422510607
                    ],
                    [
                        100.1415770808465,
                        20.324785577137845
                    ],
                    [
                        100.14057919113611,
                        20.32545707186351
                    ],
                    [
                        100.14004652468736,
                        20.32613198918716
                    ],
                    [
                        100.13999485202578,
                        20.327150840006198
                    ],
                    [
                        100.13995499393098,
                        20.328521533977735
                    ],
                    [
                        100.14015218965562,
                        20.329327635849268
                    ],
                    [
                        100.14014602881542,
                        20.33005148006434
                    ]
                ],
                "type": "LineString"
            }
        }
    ]
}