{
    "type": "FeatureCollection",
    "features": [
        {
            "type": "Feature",
            "properties": {},
            "geometry": {
                "coordinates": [
                    [
                        100.09619201247432,
                        20.339939899655946
                    ],
                    [
                        100.10204089939919,
                        20.331459156094255
                    ],
                    [
                        100.1065134175513,
                        20.33423045769763
                    ],
                    [
                        100.119078049503,
                        20.336900835918414
                    ],
                    [
                        100.11941948645105,
                        20.33697979905505
                    ],
                    [
                        100.11968423578759,
                        20.337129424516746
                    ],
                    [
                        100.11991846603772,
                        20.33729405445704
                    ],
                    [
                        100.12056276442183,
                        20.337895224731312
                    ],
                    [
                        100.12088375303955,
                        20.338041871312242
                    ],
                    [
                        100.12132222363454,
                        20.338084879777696
                    ],
                    [
                        100.12173119071764,
                        20.3380284541731
                    ],
                    [
                        100.12200197744396,
                        20.337897785860974
                    ],
                    [
                        100.12222654490247,
                        20.337744768832437
                    ],
                    [
                        100.12264613004811,
                        20.337320919215728
                    ],
                    [
                        100.1228866348356,
                        20.337130451366605
                    ],
                    [
                        100.12311602339457,
                        20.33700554858322
                    ],
                    [
                        100.1235015694109,
                        20.336915032329998
                    ],
                    [
                        100.12388330133064,
                        20.336930603281957
                    ],
                    [
                        100.12586292128253,
                        20.33779847120627
                    ],
                    [
                        100.12680531679669,
                        20.338232113125343
                    ],
                    [
                        100.12767528074022,
                        20.338728148327704
                    ],
                    [
                        100.12907886954281,
                        20.339770105251617
                    ],
                    [
                        100.13008742102943,
                        20.340291758991455
                    ],
                    [
                        100.13043196895643,
                        20.340285173493598
                    ],
                    [
                        100.13041252096349,
                        20.34028586763965
                    ],
                    [
                        100.13056170901825,
                        20.340296677222355
                    ],
                    [
                        100.13171450861131,
                        20.340109950724667
                    ],
                    [
                        100.13301763483875,
                        20.33987488898495
                    ],
                    [
                        100.13424398239613,
                        20.33963230933469
                    ],
                    [
                        100.13511070959493,
                        20.3393099976676
                    ],
                    [
                        100.13581702203476,
                        20.338952089768863
                    ],
                    [
                        100.13632107447279,
                        20.338617684840337
                    ],
                    [
                        100.13673184535219,
                        20.338225159356128
                    ],
                    [
                        100.13784553998948,
                        20.33669984030297
                    ],
                    [
                        100.14484340463366,
                        20.32676770325598
                    ],
                    [
                        100.14568747208261,
                        20.32613085778496
                    ],
                    [
                        100.14790788712281,
                        20.324607522724257
                    ],
                    [
                        100.15012306441213,
                        20.323066802030183
                    ],
                    [
                        100.15145054482747,
                        20.32218644364586
                    ],
                    [
                        100.15288684894256,
                        20.32138467596556
                    ],
                    [
                        100.15576409685502,
                        20.31980414671034
                    ],
                    [
                        100.15649246303877,
                        20.319428518283033
                    ]
                ],
                "type": "LineString"
            }
        }
    ]
}