{
    "type": "FeatureCollection",
    "features": [
        {
            "type": "Feature",
            "properties": {
                "Place": "Market",
                "marker-color": "#be0aff",
                "marker-size": "medium",
                "marker-symbol": "circle"
            },
            "geometry": {
                "type": "Point",
                "coordinates": [
                    100.09637795803252,
                    20.329056675511765
                ]
            }
        },
        {
            "type": "Feature",
            "properties": {
                "Place": "<strong>Kings Roman Casino</strong><p> Suspcted of being at the forefront of illgeal ogranzed crime in the SEZ. The parent holding company has been on the U.S. Treasury sanctions list for “drug trafficking, human trafficking, money laundering, bribery and wildlife trafficking” since 2018.</p>"
            },
            "geometry": {
                "type": "Point",
                "coordinates": [
                    100.0970946393266,
                    20.34052966054469
                ]
            }
        },
        {
            "type": "Feature",
            "properties": {
                "Place": "Security Bureau",
                "marker-color": "#fd0839",
                "marker-size": "medium",
                "marker-symbol": "circle"
            },
            "geometry": {
                "type": "Point",
                "coordinates": [
                    100.09806246051494,
                    20.348898240387868
                ]
            }
        },
        {
            "type": "Feature",
            "properties": {
                "Place": "Night Market",
                "marker-color": "#be0bff",
                "marker-size": "medium",
                "marker-symbol": "circle"
            },
            "geometry": {
                "type": "Point",
                "coordinates": [
                    100.10110488073616,
                    20.339089584100066
                ]
                
            }
        },
        {
            "type": "Feature",
            "properties": {
                "Place": "Golf Resort"
            },
            "geometry": {
                "type": "Point",
                "coordinates": [
                    100.13325568218352,
                    20.30696541225832
                ]
            }
        },
        {
            "type": "Feature",
            "properties": {
                "marker-color": "#3c5de2",
                "marker-size": "medium",
                "marker-symbol": "circle",
                "Place": "<strong>Bokeo International Airport</strong><p>A newly built International Airport to offer the mostly foreigners clientale easier acess to the SEZ. The blue line is the route to the Kings Roman Casino</p>"
            },
            "geometry": {
                "type": "Point",
                "coordinates": [
                    100.15649246303877,
                    20.319428518283033
                ]
            }
        }
    ]
}